start=new Date('%Y-%m-41T00:00:00.000Z').valueOf();
sats=[{"OBJECT_TYPE":"PAYLOAD","ECCENTRICITY":"0.00095270","CLASSIFICATION_TYPE":"U","RA_OF_ASC_NODE":"112.1519","CENTER_NAME":"EARTH","SEMIMAJOR_AXIS":"6925.370","BSTAR":"0.00002196000000","TLE_LINE1":"1 47758U 21017AN  21232.79188744  .00000042  00000-0  21960-4 0  9998","TIME_SYSTEM":"UTC","ARG_OF_PERICENTER":"106.1705","APOAPSIS":"553.833","GP_ID":"183154839","FILE":"3100512","DECAY_DATE":null,"OBJECT_ID":"2021-017AN","NORAD_CAT_ID":"47758","RCS_SIZE":"LARGE","COUNTRY_CODE":"US","LAUNCH_DATE":"2021-03-04","REV_AT_EPOCH":"2729","MEAN_ELEMENT_THEORY":"SGP4","SITE":"AFETR","REF_FRAME":"TEME","PERIAPSIS":"540.637","INCLINATION":"53.0572","MEAN_ANOMALY":"254.0333","MEAN_MOTION_DDOT":"0.0000000000000","EPHEMERIS_TYPE":"0","TLE_LINE2":"2 47758  53.0572 112.1519 0009527 106.1705 254.0333 15.06393001 27296","EPOCH":"2021-08-20T19:00:19.074816","MEAN_MOTION":"15.06393001","OBJECT_NAME":"STARLINK-2176","PERIOD":"95.593","ELEMENT_SET_NO":"999","MEAN_MOTION_DOT":"0.00000042"},{"REV_AT_EPOCH":"2670","LAUNCH_DATE":"2021-03-04","MEAN_ELEMENT_THEORY":"SGP4","COUNTRY_CODE":"US","RCS_SIZE":"LARGE","NORAD_CAT_ID":"47759","MEAN_ANOMALY":"266.1456","INCLINATION":"53.0587","PERIAPSIS":"473.563","SITE":"AFETR","REF_FRAME":"TEME","EPOCH":"2021-08-21T01:30:14.729472","TLE_LINE2":"2 47759  53.0587 107.7601 0002367  93.9814 266.1456 15.30210737 26700","EPHEMERIS_TYPE":"0","MEAN_MOTION_DDOT":"0.0000000000000","MEAN_MOTION_DOT":"0.00014067","ELEMENT_SET_NO":"999","PERIOD":"94.105","OBJECT_NAME":"STARLINK-2177","MEAN_MOTION":"15.30210737","CENTER_NAME":"EARTH","RA_OF_ASC_NODE":"107.7601","CLASSIFICATION_TYPE":"U","ECCENTRICITY":"0.00023670","OBJECT_TYPE":"PAYLOAD","TLE_LINE1":"1 47759U 21017AP  21233.06267048  .00014067  00000-0  48598-3 0  9992","TIME_SYSTEM":"UTC","BSTAR":"0.00048598000000","SEMIMAJOR_AXIS":"6853.320","APOAPSIS":"476.807","ARG_OF_PERICENTER":"93.9814","OBJECT_ID":"2021-017AP","DECAY_DATE":null,"FILE":"3100612","GP_ID":"183159934"},{"FILE":"3100512","OBJECT_ID":"2021-017AQ","DECAY_DATE":null,"GP_ID":"183156341","ARG_OF_PERICENTER":"72.3504","APOAPSIS":"548.861","BSTAR":"0.00005234300000","TLE_LINE1":"1 47760U 21017AQ  21232.82042905  .00000498  00000-0  52343-4 0  9997","TIME_SYSTEM":"UTC","SEMIMAJOR_AXIS":"6925.348","CLASSIFICATION_TYPE":"U","CENTER_NAME":"EARTH","RA_OF_ASC_NODE":"122.0012","OBJECT_TYPE":"PAYLOAD","ECCENTRICITY":"0.00023790","MEAN_MOTION_DOT":"0.00000498","OBJECT_NAME":"STARLINK-2178","MEAN_MOTION":"15.06400078","ELEMENT_SET_NO":"999","PERIOD":"95.592","EPOCH":"2021-08-20T19:41:25.069920","EPHEMERIS_TYPE":"0","TLE_LINE2":"2 47760  53.0549 122.0012 0002379  72.3504 287.7745 15.06400078 27136","MEAN_MOTION_DDOT":"0.0000000000000","MEAN_ANOMALY":"287.7745","INCLINATION":"53.0549","SITE":"AFETR","REF_FRAME":"TEME","PERIAPSIS":"545.566","LAUNCH_DATE":"2021-03-04","REV_AT_EPOCH":"2713","MEAN_ELEMENT_THEORY":"SGP4","COUNTRY_CODE":"US","RCS_SIZE":"LARGE","NORAD_CAT_ID":"47760"},{"MEAN_MOTION":"15.06390526","OBJECT_NAME":"STARLINK-2179","PERIOD":"95.593","ELEMENT_SET_NO":"999","MEAN_MOTION_DOT":"-0.00000979","MEAN_MOTION_DDOT":"0.0000000000000","EPHEMERIS_TYPE":"0","TLE_LINE2":"2 47761  53.0565 112.2040 0002096  74.4012 285.7208 15.06390526 27240","EPOCH":"2021-08-20T18:49:41.089440","REF_FRAME":"TEME","SITE":"AFETR","PERIAPSIS":"545.791","INCLINATION":"53.0565","MEAN_ANOMALY":"285.7208","NORAD_CAT_ID":"47761","RCS_SIZE":"LARGE","COUNTRY_CODE":"US","MEAN_ELEMENT_THEORY":"SGP4","LAUNCH_DATE":"2021-03-04","REV_AT_EPOCH":"2724","GP_ID":"183156091","FILE":"3100512","DECAY_DATE":null,"OBJECT_ID":"2021-017AR","ARG_OF_PERICENTER":"74.4012","APOAPSIS":"548.694","SEMIMAJOR_AXIS":"6925.378","BSTAR":"-0.00004680800000","TIME_SYSTEM":"UTC","TLE_LINE1":"1 47761U 21017AR  21232.78450335 -.00000979  00000-0 -46808-4 0  9998","OBJECT_TYPE":"PAYLOAD","ECCENTRICITY":"0.00020960","CLASSIFICATION_TYPE":"U","RA_OF_ASC_NODE":"112.2040","CENTER_NAME":"EARTH"},{"SEMIMAJOR_AXIS":"6925.368","BSTAR":"0.00007453800000","TLE_LINE1":"1 47762U 21017AS  21233.07520280  .00000829  00000-0  74538-4 0  9992","TIME_SYSTEM":"UTC","OBJECT_TYPE":"PAYLOAD","ECCENTRICITY":"0.00020130","CLASSIFICATION_TYPE":"U","CENTER_NAME":"EARTH","RA_OF_ASC_NODE":"125.8939","GP_ID":"183159950","FILE":"3100627","OBJECT_ID":"2021-017AS","DECAY_DATE":null,"ARG_OF_PERICENTER":"74.6496","APOAPSIS":"548.628","SITE":"AFETR","REF_FRAME":"TEME","PERIAPSIS":"545.839","MEAN_ANOMALY":"285.4715","INCLINATION":"53.0563","NORAD_CAT_ID":"47762","MEAN_ELEMENT_THEORY":"SGP4","LAUNCH_DATE":"2021-03-04","REV_AT_EPOCH":"2644","COUNTRY_CODE":"US","RCS_SIZE":"LARGE","MEAN_MOTION":"15.06393495","OBJECT_NAME":"STARLINK-2180","ELEMENT_SET_NO":"999","PERIOD":"95.593","MEAN_MOTION_DOT":"0.00000829","EPHEMERIS_TYPE":"0","TLE_LINE2":"2 47762  53.0563 125.8939 0002013  74.6496 285.4715 15.06393495 26442","MEAN_MOTION_DDOT":"0.0000000000000","EPOCH":"2021-08-21T01:48:17.521920"},{"EPOCH":"2021-08-21T06:59:08.172384","MEAN_MOTION_DDOT":"0.0000000000000","TLE_LINE2":"2 47763  53.0551 114.8185 0001846  73.6015 286.5177 15.06798114 26610","EPHEMERIS_TYPE":"0","MEAN_MOTION_DOT":"-0.00049546","PERIOD":"95.567","ELEMENT_SET_NO":"999","OBJECT_NAME":"STARLINK-2181","MEAN_MOTION":"15.06798114","RCS_SIZE":"LARGE","COUNTRY_CODE":"US","MEAN_ELEMENT_THEORY":"SGP4","LAUNCH_DATE":"2021-03-04","REV_AT_EPOCH":"2661","NORAD_CAT_ID":"47763","INCLINATION":"53.0551","MEAN_ANOMALY":"286.5177","PERIAPSIS":"544.715","REF_FRAME":"TEME","SITE":"AFETR","APOAPSIS":"547.272","ARG_OF_PERICENTER":"73.6015","DECAY_DATE":null,"OBJECT_ID":"2021-017AT","FILE":"3100754","GP_ID":"183162928","RA_OF_ASC_NODE":"114.8185","CENTER_NAME":"EARTH","CLASSIFICATION_TYPE":"U","ECCENTRICITY":"0.00018460","OBJECT_TYPE":"PAYLOAD","TIME_SYSTEM":"UTC","TLE_LINE1":"1 47763U 21017AT  21233.29106681 -.00049546  00000-0 -32947-2 0  9999","BSTAR":"-0.00329470000000","SEMIMAJOR_AXIS":"6924.129"},{"SEMIMAJOR_AXIS":"6925.368","TLE_LINE1":"1 47764U 21017AU  21232.79601573  .00000116  00000-0  26734-4 0  9991","TIME_SYSTEM":"UTC","BSTAR":"0.00002673400000","ECCENTRICITY":"0.00021300","OBJECT_TYPE":"PAYLOAD","RA_OF_ASC_NODE":"127.1374","CENTER_NAME":"EARTH","CLASSIFICATION_TYPE":"U","GP_ID":"183155841","DECAY_DATE":null,"OBJECT_ID":"2021-017AU","FILE":"3100512","APOAPSIS":"548.708","ARG_OF_PERICENTER":"76.8368","PERIAPSIS":"545.758","REF_FRAME":"TEME","SITE":"AFETR","INCLINATION":"53.0562","MEAN_ANOMALY":"283.2858","NORAD_CAT_ID":"47764","RCS_SIZE":"LARGE","COUNTRY_CODE":"US","REV_AT_EPOCH":"2708","LAUNCH_DATE":"2021-03-04","MEAN_ELEMENT_THEORY":"SGP4","PERIOD":"95.593","ELEMENT_SET_NO":"999","OBJECT_NAME":"STARLINK-2182","MEAN_MOTION":"15.06393711","MEAN_MOTION_DOT":"0.00000116","MEAN_MOTION_DDOT":"0.0000000000000","TLE_LINE2":"2 47764  53.0562 127.1374 0002130  76.8368 283.2858 15.06393711 27089","EPHEMERIS_TYPE":"0","EPOCH":"2021-08-20T19:06:15.759072"},{"APOAPSIS":"548.675","ARG_OF_PERICENTER":"87.0148","GP_ID":"183156592","DECAY_DATE":null,"OBJECT_ID":"2021-017AV","FILE":"3100512","ECCENTRICITY":"0.00020530","OBJECT_TYPE":"PAYLOAD","RA_OF_ASC_NODE":"107.5724","CENTER_NAME":"EARTH","CLASSIFICATION_TYPE":"U","SEMIMAJOR_AXIS":"6925.388","TIME_SYSTEM":"UTC","TLE_LINE1":"1 47765U 21017AV  21232.69834404  .00000349  00000-0  42378-4 0  9992","BSTAR":"0.00004237800000","MEAN_MOTION_DDOT":"0.0000000000000","EPHEMERIS_TYPE":"0","TLE_LINE2":"2 47765  53.0554 107.5724 0002053  87.0148 273.1076 15.06387164 27306","EPOCH":"2021-08-20T16:45:36.925056","PERIOD":"95.593","ELEMENT_SET_NO":"999","OBJECT_NAME":"STARLINK-2183","MEAN_MOTION":"15.06387164","MEAN_MOTION_DOT":"0.00000349","NORAD_CAT_ID":"47765","COUNTRY_CODE":"US","RCS_SIZE":"LARGE","LAUNCH_DATE":"2021-03-04","MEAN_ELEMENT_THEORY":"SGP4","REV_AT_EPOCH":"2730","PERIAPSIS":"545.831","SITE":"AFETR","REF_FRAME":"TEME","INCLINATION":"53.0554","MEAN_ANOMALY":"273.1076"},{"NORAD_CAT_ID":"47766","RCS_SIZE":"LARGE","COUNTRY_CODE":"US","MEAN_ELEMENT_THEORY":"SGP4","LAUNCH_DATE":"2021-03-04","REV_AT_EPOCH":"2644","REF_FRAME":"TEME","SITE":"AFETR","PERIAPSIS":"545.941","INCLINATION":"53.0555","MEAN_ANOMALY":"287.6116","MEAN_MOTION_DDOT":"0.0000000000000","TLE_LINE2":"2 47766  53.0555 125.8678 0001865  72.5077 287.6116 15.06393778 26446","EPHEMERIS_TYPE":"0","EPOCH":"2021-08-21T01:54:57.635136","MEAN_MOTION":"15.06393778","OBJECT_NAME":"STARLINK-2184","PERIOD":"95.593","ELEMENT_SET_NO":"999","MEAN_MOTION_DOT":"-0.00000427","OBJECT_TYPE":"PAYLOAD","ECCENTRICITY":"0.00018650","CLASSIFICATION_TYPE":"U","RA_OF_ASC_NODE":"125.8678","CENTER_NAME":"EARTH","SEMIMAJOR_AXIS":"6925.368","BSTAR":"-0.00000977310000","TIME_SYSTEM":"UTC","TLE_LINE1":"1 47766U 21017AW  21233.07983374 -.00000427  00000-0 -97731-5 0  9990","ARG_OF_PERICENTER":"72.5077","APOAPSIS":"548.524","GP_ID":"183160018","FILE":"3100628","DECAY_DATE":null,"OBJECT_ID":"2021-017AW"},{"MEAN_ANOMALY":"287.2029","INCLINATION":"53.0554","SITE":"AFETR","REF_FRAME":"TEME","PERIAPSIS":"545.742","LAUNCH_DATE":"2021-03-04","REV_AT_EPOCH":"2666","MEAN_ELEMENT_THEORY":"SGP4","RCS_SIZE":"LARGE","COUNTRY_CODE":"US","NORAD_CAT_ID":"47767","MEAN_MOTION_DOT":"0.00000986","OBJECT_NAME":"STARLINK-2185","MEAN_MOTION":"15.06402179","ELEMENT_SET_NO":"999","PERIOD":"95.592","EPOCH":"2021-08-21T02:31:26.370912","EPHEMERIS_TYPE":"0","TLE_LINE2":"2 47767  53.0554 110.7540 0002115  72.9192 287.2029 15.06402179 26667","MEAN_MOTION_DDOT":"0.0000000000000","BSTAR":"0.00008511100000","TLE_LINE1":"1 47767U 21017AX  21233.10516633  .00000986  00000-0  85111-4 0  9991","TIME_SYSTEM":"UTC","SEMIMAJOR_AXIS":"6925.342","CLASSIFICATION_TYPE":"U","CENTER_NAME":"EARTH","RA_OF_ASC_NODE":"110.7540","OBJECT_TYPE":"PAYLOAD","ECCENTRICITY":"0.00021150","FILE":"3100628","OBJECT_ID":"2021-017AX","DECAY_DATE":null,"GP_ID":"183160016","ARG_OF_PERICENTER":"72.9192","APOAPSIS":"548.672"}];
